0 SL-12 R/B(2)
1 26090U 00011B   13281.59360876 -.00000041  00000-0  00000+0 0   433
2 26090 017.0409 053.7899 5395009 024.7914 324.4236 01.90704135 95142
0 SL-12 R/B(2)
1 26090U 00011B   13284.25296416 -.00000023  00000-0  00000+0 0   448
2 26090 017.0456 053.4888 5394839 025.3626 350.1349 01.90704582 95198
0 SL-12 R/B(2)
1 26090U 00011B   13287.41773455 -.00000155  00000-0  00000+0 0   459
2 26090 017.0511 053.1298 5394773 026.0418 002.8439 01.90705854 95257
0 SL-12 R/B(2)
1 26090U 00011B   13290.54955291  .00000000  00000-0  10000-3 0   461
2 26090 017.0631 052.7449 5394185 026.7392 352.9384 01.90702160 95309
0 SL-12 R/B(2)
1 26090U 00011B   13290.58512999 -.00000168  00000-0  00000+0 0   460
2 26090 017.0563 052.7708 5394714 026.7208 017.3637 01.90705299 95315
